0 BRAZILSAT 1
1 15561U 85015B   13280.01111641 -.00000086  00000-0  10000-3 0  6330
2 15561 014.1728 028.1081 0003148 168.1595 191.8494 00.99552598 80459
0 BRAZILSAT 1
1 15561U 85015B   13284.02890000 -.00000163  00000-0  10000-3 0  6345
2 15561 014.1775 028.0633 0002808 165.3325 194.6759 00.99553420 80499
0 BRAZILSAT 1
1 15561U 85015B   13289.05105875 -.00000238  00000-0  10000-3 0  6356
2 15561 014.1839 028.0054 0002917 165.6656 194.3219 00.99553577 80545
0 BRAZILSAT 1
1 15561U 85015B   13291.05992493 -.00000259  00000-0  10000-3 0  6363
2 15561 014.1864 027.9825 0002914 165.0422 194.9385 00.99553391 80565
0 BRAZILSAT 1
1 15561U 85015B   13293.06880768 -.00000273  00000-0  10000-3 0  6374
2 15561 014.1889 027.9598 0002902 165.9003 194.0774 00.99553074 80583
